start=new Date('2022-01-08T00:00:00.000Z').valueOf();
sats=[{"ELEMENT_SET_NO":"999","RCS_SIZE":"LARGE","REV_AT_EPOCH":"5169","RA_OF_ASC_NODE":"352.2892","MEAN_ANOMALY":"286.2967","SEMIMAJOR_AXIS":"6766.525","BSTAR":"0.00020405000000","NORAD_CAT_ID":"47605","TIME_SYSTEM":"UTC","MEAN_MOTION_DDOT":"0.0000000000000","LAUNCH_DATE":"2021-02-04","PERIOD":"92.323","CENTER_NAME":"EARTH","CLASSIFICATION_TYPE":"U","APOAPSIS":"390.813","EPOCH":"2022-01-07T16:03:48.818592","OBJECT_NAME":"STARLINK-2023","COUNTRY_CODE":"US","ECCENTRICITY":"0.00035810","REF_FRAME":"TEME","OBJECT_TYPE":"PAYLOAD","DECAY_DATE":null,"ARG_OF_PERICENTER":"73.8439","MEAN_MOTION_DOT":"0.00016157","TLE_LINE2":"2 47605  53.0515 352.2892 0003581  73.8439 286.2967 15.59747310 51698","PERIAPSIS":"385.967","TLE_LINE1":"1 47605U 21009BK  22007.66931503  .00016157  00000-0  20405-3 0  9992","FILE":"3266804","GP_ID":"193425005","INCLINATION":"53.0515","EPHEMERIS_TYPE":"0","SITE":"AFETR","OBJECT_ID":"2021-009BK","MEAN_ELEMENT_THEORY":"SGP4","MEAN_MOTION":"15.59747310"},{"MEAN_MOTION_DDOT":"0.0000000000000","TIME_SYSTEM":"UTC","SEMIMAJOR_AXIS":"6925.348","BSTAR":"0.00013085000000","NORAD_CAT_ID":"47606","ELEMENT_SET_NO":"999","REV_AT_EPOCH":"5149","MEAN_ANOMALY":"296.2983","RA_OF_ASC_NODE":"5.4323","RCS_SIZE":"LARGE","OBJECT_NAME":"STARLINK-2024","ECCENTRICITY":"0.00015010","COUNTRY_CODE":"US","REF_FRAME":"TEME","CENTER_NAME":"EARTH","PERIOD":"95.592","LAUNCH_DATE":"2021-02-04","EPOCH":"2022-01-07T09:36:43.259616","APOAPSIS":"548.253","CLASSIFICATION_TYPE":"U","MEAN_MOTION_DOT":"0.00001668","PERIAPSIS":"546.174","TLE_LINE2":"2 47606  53.0580   5.4323 0001501  63.8161 296.2983 15.06400090 51498","OBJECT_TYPE":"PAYLOAD","DECAY_DATE":null,"ARG_OF_PERICENTER":"63.8161","SITE":"AFETR","OBJECT_ID":"2021-009BL","EPHEMERIS_TYPE":"0","MEAN_MOTION":"15.06400090","MEAN_ELEMENT_THEORY":"SGP4","FILE":"3266507","GP_ID":"193394510","TLE_LINE1":"1 47606U 21009BL  22007.40050069  .00001668  00000-0  13085-3 0  9991","INCLINATION":"53.0580"},{"INCLINATION":"53.0543","GP_ID":"193425504","FILE":"3266804","TLE_LINE1":"1 47607U 21009BM  22007.84282290 -.00000620  00000-0 -22735-4 0  9995","MEAN_MOTION":"15.06389653","MEAN_ELEMENT_THEORY":"SGP4","OBJECT_ID":"2021-009BM","SITE":"AFETR","EPHEMERIS_TYPE":"0","ARG_OF_PERICENTER":"67.7064","DECAY_DATE":null,"OBJECT_TYPE":"PAYLOAD","TLE_LINE2":"2 47607  53.0543   3.4518 0001586  67.7064 292.4093 15.06389653 51558","PERIAPSIS":"546.147","MEAN_MOTION_DOT":"-0.00000620","EPOCH":"2022-01-07T20:13:39.898560","CLASSIFICATION_TYPE":"U","APOAPSIS":"548.344","CENTER_NAME":"EARTH","LAUNCH_DATE":"2021-02-04","PERIOD":"95.593","REF_FRAME":"TEME","COUNTRY_CODE":"US","ECCENTRICITY":"0.00015860","OBJECT_NAME":"STARLINK-2025","RA_OF_ASC_NODE":"3.4518","MEAN_ANOMALY":"292.4093","REV_AT_EPOCH":"5155","RCS_SIZE":"LARGE","ELEMENT_SET_NO":"999","TIME_SYSTEM":"UTC","MEAN_MOTION_DDOT":"0.0000000000000","NORAD_CAT_ID":"47607","SEMIMAJOR_AXIS":"6925.380","BSTAR":"-0.00002273500000"},{"ARG_OF_PERICENTER":"84.0552","DECAY_DATE":null,"OBJECT_TYPE":"PAYLOAD","PERIAPSIS":"546.373","TLE_LINE2":"2 47620  53.0550  63.3828 0001235  84.0552 276.0577 15.06395063 50607","MEAN_MOTION_DOT":"-0.00000666","INCLINATION":"53.0550","TLE_LINE1":"1 47620U 21012A   22007.85940829 -.00000666  00000-0 -25801-4 0  9991","GP_ID":"193425256","FILE":"3266804","MEAN_ELEMENT_THEORY":"SGP4","MEAN_MOTION":"15.06395063","EPHEMERIS_TYPE":"0","OBJECT_ID":"2021-012A","SITE":"AFETR","RCS_SIZE":"LARGE","RA_OF_ASC_NODE":"63.3828","MEAN_ANOMALY":"276.0577","REV_AT_EPOCH":"5060","ELEMENT_SET_NO":"999","NORAD_CAT_ID":"47620","BSTAR":"-0.00002580100000","SEMIMAJOR_AXIS":"6925.364","MEAN_MOTION_DDOT":"0.0000000000000","TIME_SYSTEM":"UTC","APOAPSIS":"548.084","CLASSIFICATION_TYPE":"U","EPOCH":"2022-01-07T20:37:32.876256","LAUNCH_DATE":"2021-02-16","PERIOD":"95.592","CENTER_NAME":"EARTH","COUNTRY_CODE":"US","REF_FRAME":"TEME","ECCENTRICITY":"0.00012350","OBJECT_NAME":"STARLINK-1528"},{"TIME_SYSTEM":"UTC","MEAN_MOTION_DDOT":"0.0000000000000","NORAD_CAT_ID":"47621","SEMIMAJOR_AXIS":"6925.378","BSTAR":"-0.00001281600000","MEAN_ANOMALY":"289.1728","RA_OF_ASC_NODE":"63.4156","REV_AT_EPOCH":"5061","RCS_SIZE":"LARGE","ELEMENT_SET_NO":"999","REF_FRAME":"TEME","COUNTRY_CODE":"US","ECCENTRICITY":"0.00014100","OBJECT_NAME":"STARLINK-1609","EPOCH":"2022-01-07T20:26:56.239584","APOAPSIS":"548.220","CLASSIFICATION_TYPE":"U","CENTER_NAME":"EARTH","PERIOD":"95.593","LAUNCH_DATE":"2021-02-16","TLE_LINE2":"2 47621  53.0563  63.4156 0001410  70.9414 289.1728 15.06390256 50616","PERIAPSIS":"546.267","MEAN_MOTION_DOT":"-0.00000472","ARG_OF_PERICENTER":"70.9414","DECAY_DATE":null,"OBJECT_TYPE":"PAYLOAD","MEAN_MOTION":"15.06390256","MEAN_ELEMENT_THEORY":"SGP4","OBJECT_ID":"2021-012B","SITE":"AFETR","EPHEMERIS_TYPE":"0","INCLINATION":"53.0563","GP_ID":"193425505","FILE":"3266804","TLE_LINE1":"1 47621U 21012B   22007.85203981 -.00000472  00000-0 -12816-4 0  9990"},{"OBJECT_NAME":"STARLINK-1645","COUNTRY_CODE":"US","ECCENTRICITY":"0.00012540","REF_FRAME":"TEME","CENTER_NAME":"EARTH","LAUNCH_DATE":"2021-02-16","PERIOD":"95.593","EPOCH":"2022-01-07T20:21:38.209824","APOAPSIS":"548.118","CLASSIFICATION_TYPE":"U","MEAN_MOTION_DDOT":"0.0000000000000","TIME_SYSTEM":"UTC","NORAD_CAT_ID":"47622","SEMIMAJOR_AXIS":"6925.385","BSTAR":"0.00003283200000","ELEMENT_SET_NO":"999","RA_OF_ASC_NODE":"63.4219","MEAN_ANOMALY":"285.3571","REV_AT_EPOCH":"5060","RCS_SIZE":"LARGE","OBJECT_ID":"2021-012C","SITE":"AFETR","EPHEMERIS_TYPE":"0","MEAN_MOTION":"15.06388240","MEAN_ELEMENT_THEORY":"SGP4","GP_ID":"193426244","FILE":"3266804","TLE_LINE1":"1 47622U 21012C   22007.84835891  .00000208  00000-0  32832-4 0  9996","INCLINATION":"53.0562","TLE_LINE2":"2 47622  53.0562  63.4219 0001254  74.7557 285.3571 15.06388240 50605","PERIAPSIS":"546.381","MEAN_MOTION_DOT":"0.00000208","DECAY_DATE":null,"OBJECT_TYPE":"PAYLOAD","ARG_OF_PERICENTER":"74.7557"},{"MEAN_ELEMENT_THEORY":"SGP4","MEAN_MOTION":"15.06396703","EPHEMERIS_TYPE":"0","OBJECT_ID":"2021-012D","SITE":"AFETR","INCLINATION":"53.0571","TLE_LINE1":"1 47623U 21012D   22007.66082528 -.00000464  00000-0 -12222-4 0  9995","GP_ID":"193424507","FILE":"3266804","TLE_LINE2":"2 47623  53.0571 359.2673 0001578  63.3317 296.7834 15.06396703 51492","PERIAPSIS":"546.131","MEAN_MOTION_DOT":"-0.00000464","ARG_OF_PERICENTER":"63.3317","DECAY_DATE":null,"OBJECT_TYPE":"PAYLOAD","REF_FRAME":"TEME","COUNTRY_CODE":"US","ECCENTRICITY":"0.00015780","OBJECT_NAME":"STARLINK-1655","APOAPSIS":"548.316","CLASSIFICATION_TYPE":"U","EPOCH":"2022-01-07T15:51:35.304192","PERIOD":"95.592","LAUNCH_DATE":"2021-02-16","CENTER_NAME":"EARTH","NORAD_CAT_ID":"47623","SEMIMAJOR_AXIS":"6925.359","BSTAR":"-0.00001222200000","MEAN_MOTION_DDOT":"0.0000000000000","TIME_SYSTEM":"UTC","RCS_SIZE":"LARGE","MEAN_ANOMALY":"296.7834","RA_OF_ASC_NODE":"359.2673","REV_AT_EPOCH":"5149","ELEMENT_SET_NO":"999"},{"INCLINATION":"53.0556","GP_ID":"193424757","FILE":"3266804","TLE_LINE1":"1 47624U 21012E   22007.78752874  .00001588  00000-0  12546-3 0  9991","MEAN_MOTION":"15.06400049","MEAN_ELEMENT_THEORY":"SGP4","OBJECT_ID":"2021-012E","SITE":"AFETR","EPHEMERIS_TYPE":"0","ARG_OF_PERICENTER":"75.4508","DECAY_DATE":null,"OBJECT_TYPE":"PAYLOAD","PERIAPSIS":"546.262","TLE_LINE2":"2 47624  53.0556  43.7013 0001374  75.4508 284.6633 15.06400049 50894","MEAN_MOTION_DOT":"0.00001588","EPOCH":"2022-01-07T18:54:02.483136","CLASSIFICATION_TYPE":"U","APOAPSIS":"548.165","CENTER_NAME":"EARTH","PERIOD":"95.592","LAUNCH_DATE":"2021-02-16","ECCENTRICITY":"0.00013740","COUNTRY_CODE":"US","REF_FRAME":"TEME","OBJECT_NAME":"STARLINK-1669","RA_OF_ASC_NODE":"43.7013","MEAN_ANOMALY":"284.6633","REV_AT_EPOCH":"5089","RCS_SIZE":"LARGE","ELEMENT_SET_NO":"999","TIME_SYSTEM":"UTC","MEAN_MOTION_DDOT":"0.0000000000000","NORAD_CAT_ID":"47624","SEMIMAJOR_AXIS":"6925.348","BSTAR":"0.00012546000000"},{"MEAN_ELEMENT_THEORY":"SGP4","MEAN_MOTION":"15.06396583","EPHEMERIS_TYPE":"0","SITE":"AFETR","OBJECT_ID":"2021-012F","INCLINATION":"53.0562","TLE_LINE1":"1 47625U 21012F   22007.85571694  .00001754  00000-0  13662-3 0  9994","FILE":"3266804","GP_ID":"193426005","MEAN_MOTION_DOT":"0.00001754","PERIAPSIS":"546.414","TLE_LINE2":"2 47625  53.0562  63.3967 0001169  82.8310 277.2812 15.06396583 50606","ARG_OF_PERICENTER":"82.8310","OBJECT_TYPE":"PAYLOAD","DECAY_DATE":null,"COUNTRY_CODE":"US","ECCENTRICITY":"0.00011690","REF_FRAME":"TEME","OBJECT_NAME":"STARLINK-1704","APOAPSIS":"548.034","CLASSIFICATION_TYPE":"U","EPOCH":"2022-01-07T20:32:13.943616","PERIOD":"95.592","LAUNCH_DATE":"2021-02-16","CENTER_NAME":"EARTH","SEMIMAJOR_AXIS":"6925.359","BSTAR":"0.00013662000000","NORAD_CAT_ID":"47625","TIME_SYSTEM":"UTC","MEAN_MOTION_DDOT":"0.0000000000000","RCS_SIZE":"LARGE","REV_AT_EPOCH":"5060","MEAN_ANOMALY":"277.2812","RA_OF_ASC_NODE":"63.3967","ELEMENT_SET_NO":"999"},{"FILE":"3266684","GP_ID":"193400735","TLE_LINE1":"1 47626U 21012G   22007.84097853 -.00000782  00000-0 -33624-4 0  9997","INCLINATION":"53.0576","SITE":"AFETR","OBJECT_ID":"2021-012G","EPHEMERIS_TYPE":"0","MEAN_MOTION":"15.06392538","MEAN_ELEMENT_THEORY":"SGP4","OBJECT_TYPE":"PAYLOAD","DECAY_DATE":null,"ARG_OF_PERICENTER":"74.1704","MEAN_MOTION_DOT":"-0.00000782","PERIAPSIS":"546.323","TLE_LINE2":"2 47626  53.0576  63.4534 0001319  74.1704 285.9430 15.06392538 50092","CENTER_NAME":"EARTH","PERIOD":"95.593","LAUNCH_DATE":"2021-02-16","EPOCH":"2022-01-07T20:11:00.544992","APOAPSIS":"548.150","CLASSIFICATION_TYPE":"U","OBJECT_NAME":"STARLINK-1761","ECCENTRICITY":"0.00013190","COUNTRY_CODE":"US","REF_FRAME":"TEME","ELEMENT_SET_NO":"999","REV_AT_EPOCH":"5009","MEAN_ANOMALY":"285.9430","RA_OF_ASC_NODE":"63.4534","RCS_SIZE":"LARGE","TIME_SYSTEM":"UTC","MEAN_MOTION_DDOT":"0.0000000000000","BSTAR":"-0.00003362400000","SEMIMAJOR_AXIS":"6925.371","NORAD_CAT_ID":"47626"}];
